QIANFAN-105             
1 66047U 25233Q   26005.48970657  .00000245  00000+0  18591-3 0  9994
2 66047  88.9941  59.5464 0014205 334.7392  25.3085 13.90526099 11290
QIANFAN-106             
1 66048U 25233R   26005.48940321  .00000131  00000+0  16509-3 0  9991
2 66048  88.9926  59.6678 0013942 332.3084  27.7327 13.57814081 11223
QIANFAN-107             
1 66049U 25233S   26005.49469022  .00000143  00000+0  18158-3 0  9992
2 66049  88.9940  59.6731 0013687 337.0077  23.0463 13.57810893 11227
QIANFAN-108             
1 66050U 25233T   26005.48103487  .00000051  00000+0  57144-4 0  9990
2 66050  88.9934  59.6696 0013573 337.2997  22.7554 13.54394800 11228
